{
  "type": "FeatureCollection",
  "features": [
    {
      "type": "Feature",
      "properties": {
        "norad_id": 33986,
        "name": "COSMOS 2251 DEB",
        "group": "cosmos-2251-debris",
        "lat": 43.18041054363362,
        "lon": 91.00315906555402,
        "alt_km": 765.1830457006872,
        "timestamp": "2025-12-21T09:37:23.048159+00:00",
        "meta_object_name": "COSMOS 2251 DEB",
        "meta_object_id": "1993-036FV",
        "meta_epoch": "2025-12-21T02:27:33.268032",
        "meta_mean_motion": 14.43240913,
        "meta_eccentricity": 0.0040907,
        "meta_inclination": 74.0371,
        "meta_ra_of_asc_node": 287.1386,
        "meta_arg_of_pericenter": 358.0224,
        "meta_mean_anomaly": 25.961,
        "meta_ephemeris_type": 0,
        "meta_classification_type": "U",
        "meta_norad_cat_id": 33986,
        "meta_element_set_no": 999,
        "meta_rev_at_epoch": 88149,
        "meta_bstar": 0.00047269,
        "meta_mean_motion_dot": 1.58e-05,
        "meta_mean_motion_ddot": 0,
        "tle_line1": "1 33986U 93036FV  25355.10246838  .00001580  00000+0  47269-3 0  9996",
        "tle_line2": "2 33986  74.0371 287.1386 0040907 358.0224  25.9610 14.43240913881496"
      },
      "geometry": {
        "type": "Point",
        "coordinates": [
          91.00315906555402,
          43.18041054363362
        ]
      }
    },
    {
      "type": "Feature",
      "properties": {
        "norad_id": 33990,
        "name": "COSMOS 2251 DEB",
        "group": "cosmos-2251-debris",
        "lat": 21.263005465161026,
        "lon": 85.64852344849403,
        "alt_km": 1272.312517556632,
        "timestamp": "2025-12-21T09:37:23.048170+00:00",
        "meta_object_name": "COSMOS 2251 DEB",
        "meta_object_id": "1993-036FZ",
        "meta_epoch": "2025-12-21T03:48:42.156000",
        "meta_mean_motion": 13.50007482,
        "meta_eccentricity": 0.0407409,
        "meta_inclination": 73.9285,
        "meta_ra_of_asc_node": 272.4779,
        "meta_arg_of_pericenter": 291.2723,
        "meta_mean_anomaly": 133.5634,
        "meta_ephemeris_type": 0,
        "meta_classification_type": "U",
        "meta_norad_cat_id": 33990,
        "meta_element_set_no": 999,
        "meta_rev_at_epoch": 82843,
        "meta_bstar": 0.00062134,
        "meta_mean_motion_dot": 6.38e-06,
        "meta_mean_motion_ddot": 0,
        "tle_line1": "1 33990U 93036FZ  25355.15882125  .00000638  00000+0  62134-3 0  9992",
        "tle_line2": "2 33990  73.9285 272.4779 0407409 291.2723 133.5634 13.50007482828438"
      },
      "geometry": {
        "type": "Point",
        "coordinates": [
          85.64852344849403,
          21.263005465161026
        ]
      }
    },
    {
      "type": "Feature",
      "properties": {
        "norad_id": 33992,
        "name": "COSMOS 2251 DEB",
        "group": "cosmos-2251-debris",
        "lat": -13.440447567898735,
        "lon": -42.8959595651588,
        "alt_km": 677.0892046584404,
        "timestamp": "2025-12-21T09:37:23.048180+00:00",
        "meta_object_name": "COSMOS 2251 DEB",
        "meta_object_id": "1993-036GB",
        "meta_epoch": "2025-12-20T16:27:16.450848",
        "meta_mean_motion": 14.66271139,
        "meta_eccentricity": 0.0051733,
        "meta_inclination": 74.024,
        "meta_ra_of_asc_node": 322.409,
        "meta_arg_of_pericenter": 77.803,
        "meta_mean_anomaly": 94.4177,
        "meta_ephemeris_type": 0,
        "meta_classification_type": "U",
        "meta_norad_cat_id": 33992,
        "meta_element_set_no": 999,
        "meta_rev_at_epoch": 89241,
        "meta_bstar": 0.00050767779,
        "meta_mean_motion_dot": 2.824e-05,
        "meta_mean_motion_ddot": 0,
        "tle_line1": "1 33992U 93036GB  25354.68560707  .00002824  00000+0  50768-3 0  9999",
        "tle_line2": "2 33992  74.0240 322.4090 0051733  77.8030  94.4177 14.66271139892415"
      },
      "geometry": {
        "type": "Point",
        "coordinates": [
          -42.8959595651588,
          -13.440447567898735
        ]
      }
    },
    {
      "type": "Feature",
      "properties": {
        "norad_id": 33994,
        "name": "COSMOS 2251 DEB",
        "group": "cosmos-2251-debris",
        "lat": -18.66266343261128,
        "lon": -0.07192592406775736,
        "alt_km": 764.3610574033355,
        "timestamp": "2025-12-21T09:37:23.048190+00:00",
        "meta_object_name": "COSMOS 2251 DEB",
        "meta_object_id": "1993-036GD",
        "meta_epoch": "2025-12-20T23:27:18.364032",
        "meta_mean_motion": 14.41219201,
        "meta_eccentricity": 0.0023896,
        "meta_inclination": 74.0415,
        "meta_ra_of_asc_node": 175.1657,
        "meta_arg_of_pericenter": 308.0802,
        "meta_mean_anomaly": 214.2571,
        "meta_ephemeris_type": 0,
        "meta_classification_type": "U",
        "meta_norad_cat_id": 33994,
        "meta_element_set_no": 999,
        "meta_rev_at_epoch": 88538,
        "meta_bstar": 6.4565e-05,
        "meta_mean_motion_dot": 1.82e-06,
        "meta_mean_motion_ddot": 0,
        "tle_line1": "1 33994U 93036GD  25354.97729588  .00000182  00000+0  64565-4 0  9993",
        "tle_line2": "2 33994  74.0415 175.1657 0023896 308.0802 214.2571 14.41219201885381"
      },
      "geometry": {
        "type": "Point",
        "coordinates": [
          -0.07192592406775736,
          -18.66266343261128
        ]
      }
    },
    {
      "type": "Feature",
      "properties": {
        "norad_id": 33995,
        "name": "COSMOS 2251 DEB",
        "group": "cosmos-2251-debris",
        "lat": 68.26746589154901,
        "lon": 149.30716071550341,
        "alt_km": 736.1561323298756,
        "timestamp": "2025-12-21T09:37:23.048200+00:00",
        "meta_object_name": "COSMOS 2251 DEB",
        "meta_object_id": "1993-036GE",
        "meta_epoch": "2025-12-20T09:50:53.769120",
        "meta_mean_motion": 14.34807762,
        "meta_eccentricity": 0.00595956,
        "meta_inclination": 74.0617,
        "meta_ra_of_asc_node": 105.3188,
        "meta_arg_of_pericenter": 117.5875,
        "meta_mean_anomaly": 243.1347,
        "meta_ephemeris_type": 0,
        "meta_classification_type": "U",
        "meta_norad_cat_id": 33995,
        "meta_element_set_no": 999,
        "meta_rev_at_epoch": 87629,
        "meta_bstar": 0.00058743602,
        "meta_mean_motion_dot": 1.675e-05,
        "meta_mean_motion_ddot": 0,
        "tle_line1": "1 33995U 93036GE  25354.41034455  .00001675  00000+0  58744-3 0  9994",
        "tle_line2": "2 33995  74.0617 105.3188 0059595 117.5875 243.1347 14.34807762876297"
      },
      "geometry": {
        "type": "Point",
        "coordinates": [
          149.30716071550341,
          68.26746589154901
        ]
      }
    },
    {
      "type": "Feature",
      "properties": {
        "norad_id": 33999,
        "name": "COSMOS 2251 DEB",
        "group": "cosmos-2251-debris",
        "lat": -48.34849647097736,
        "lon": -165.42518927203923,
        "alt_km": 653.4181246444123,
        "timestamp": "2025-12-21T09:37:23.048210+00:00",
        "meta_object_name": "COSMOS 2251 DEB",
        "meta_object_id": "1993-036GJ",
        "meta_epoch": "2025-12-21T00:08:35.898720",
        "meta_mean_motion": 14.83509609,
        "meta_eccentricity": 0.0044385,
        "meta_inclination": 73.9174,
        "meta_ra_of_asc_node": 214.2892,
        "meta_arg_of_pericenter": 107.3771,
        "meta_mean_anomaly": 253.2267,
        "meta_ephemeris_type": 0,
        "meta_classification_type": "U",
        "meta_norad_cat_id": 33999,
        "meta_element_set_no": 999,
        "meta_rev_at_epoch": 89373,
        "meta_bstar": 0.00071983,
        "meta_mean_motion_dot": 5.995e-05,
        "meta_mean_motion_ddot": 0,
        "tle_line1": "1 33999U 93036GJ  25355.00597105  .00005995  00000+0  71983-3 0  9999",
        "tle_line2": "2 33999  73.9174 214.2892 0044385 107.3771 253.2267 14.83509609893736"
      },
      "geometry": {
        "type": "Point",
        "coordinates": [
          -165.42518927203923,
          -48.34849647097736
        ]
      }
    },
    {
      "type": "Feature",
      "properties": {
        "norad_id": 34001,
        "name": "COSMOS 2251 DEB",
        "group": "cosmos-2251-debris",
        "lat": -54.559650634667044,
        "lon": -118.04860882708984,
        "alt_km": 764.0800828174561,
        "timestamp": "2025-12-21T09:37:23.048220+00:00",
        "meta_object_name": "COSMOS 2251 DEB",
        "meta_object_id": "1993-036GL",
        "meta_epoch": "2025-12-20T20:50:12.168096",
        "meta_mean_motion": 14.37107294,
        "meta_eccentricity": 0.0020311,
        "meta_inclination": 74.0389,
        "meta_ra_of_asc_node": 266.6412,
        "meta_arg_of_pericenter": 346.0834,
        "meta_mean_anomaly": 81.0127,
        "meta_ephemeris_type": 0,
        "meta_classification_type": "U",
        "meta_norad_cat_id": 34001,
        "meta_element_set_no": 999,
        "meta_rev_at_epoch": 88263,
        "meta_bstar": 0.00013371,
        "meta_mean_motion_dot": 3.72e-06,
        "meta_mean_motion_ddot": 0,
        "tle_line1": "1 34001U 93036GL  25354.86819639  .00000372  00000+0  13371-3 0  9997",
        "tle_line2": "2 34001  74.0389 266.6412 0020311 346.0834  81.0127 14.37107294882637"
      },
      "geometry": {
        "type": "Point",
        "coordinates": [
          -118.04860882708984,
          -54.559650634667044
        ]
      }
    }
  ]
}